sat27736
1 27736U 81120H   20046.51085627  .00000035  00000-0  25828-3 0  9999
2 27736  82.9633 126.2876 0056251 134.7537 236.9505 12.15004715770346
